{
    "links": {
        "self": "http://www.neowsapp.com/rest/v1/neo/3738936?api_key=iIulBulltgU6a56xZRHN4H3l9WmuAYTsLGpBGhQ2"
    },
    "id": "3738936",
    "neo_reference_id": "3738936",
    "name": "(2015 YT1)",
    "designation": "2015 YT1",
    "nasa_jpl_url": "http://ssd.jpl.nasa.gov/sbdb.cgi?sstr=3738936",
    "absolute_magnitude_h": 27.0,
    "estimated_diameter": {
        "kilometers": {
            "estimated_diameter_min": 0.0105816886,
            "estimated_diameter_max": 0.023661375
        },
        "meters": {
            "estimated_diameter_min": 10.5816885933,
            "estimated_diameter_max": 23.6613750114
        },
        "miles": {
            "estimated_diameter_min": 0.0065751544,
            "estimated_diameter_max": 0.0147024923
        },
        "feet": {
            "estimated_diameter_min": 34.7168272045,
            "estimated_diameter_max": 77.6291855923
        }
    },
    "is_potentially_hazardous_asteroid": false,
    "close_approach_data": [
        {
            "close_approach_date": "2015-12-31",
            "close_approach_date_full": "2015-Dec-31 04:34",
            "epoch_date_close_approach": 1451536440000,
            "relative_velocity": {
                "kilometers_per_second": "6.0559679728",
                "kilometers_per_hour": "21801.4847021121",
                "miles_per_hour": "13546.5947583763"
            },
            "miss_distance": {
                "astronomical": "0.0347401765",
                "lunar": "13.5139286585",
                "kilometers": "5197056.407824055",
                "miles": "3229301.107139759"
            },
            "orbiting_body": "Earth"
        },
        {
            "close_approach_date": "2018-04-06",
            "close_approach_date_full": "2018-Apr-06 10:01",
            "epoch_date_close_approach": 1523008860000,
            "relative_velocity": {
                "kilometers_per_second": "12.028907345",
                "kilometers_per_hour": "43304.0664419212",
                "miles_per_hour": "26907.4628399815"
            },
            "miss_distance": {
                "astronomical": "0.0954281156",
                "lunar": "37.1215369684",
                "kilometers": "14275842.831873772",
                "miles": "8870597.4006591736"
            },
            "orbiting_body": "Mars"
        }
    ],
    "orbital_data": {
        "orbit_id": "6",
        "orbit_determination_date": "2017-04-06 08:29:38",
        "first_observation_date": "2015-12-18",
        "last_observation_date": "2016-01-04",
        "data_arc_in_days": 17,
        "observations_used": 31,
        "orbit_uncertainty": "8",
        "minimum_orbit_intersection": ".0301456",
        "jupiter_tisserand_invariant": "4.472",
        "epoch_osculation": "2457376.5",
        "eccentricity": ".3435941541684722",
        "semi_major_axis": "1.501097872371375",
        "inclination": "4.509517347900023",
        "ascending_node_longitude": "265.7839132319869",
        "orbital_period": "671.7565982967825",
        "perihelion_distance": ".9853294185898395",
        "perihelion_argument": "218.3600588309585",
        "aphelion_distance": "2.016866326152911",
        "perihelion_time": "2457408.805950440359",
        "mean_anomaly": "342.6869699709432",
        "mean_motion": ".5359083943689851",
        "equinox": "J2000",
        "orbit_class": {
            "orbit_class_type": "APO",
            "orbit_class_description": "Near-Earth asteroid orbits which cross the Earth’s orbit similar to that of 1862 Apollo",
            "orbit_class_range": "a (semi-major axis) > 1.0 AU; q (perihelion) < 1.017 AU"
        }
    },
    "is_sentry_object": false
}